{
    "links": {
        "self": "http://www.neowsapp.com/rest/v1/neo/3719176?api_key=iIulBulltgU6a56xZRHN4H3l9WmuAYTsLGpBGhQ2"
    },
    "id": "3719176",
    "neo_reference_id": "3719176",
    "name": "(2015 JW)",
    "designation": "2015 JW",
    "nasa_jpl_url": "http://ssd.jpl.nasa.gov/sbdb.cgi?sstr=3719176",
    "absolute_magnitude_h": 25.8,
    "estimated_diameter": {
        "kilometers": {
            "estimated_diameter_min": 0.0183888672,
            "estimated_diameter_max": 0.0411187571
        },
        "meters": {
            "estimated_diameter_min": 18.388867207,
            "estimated_diameter_max": 41.1187571041
        },
        "miles": {
            "estimated_diameter_min": 0.0114263088,
            "estimated_diameter_max": 0.0255500032
        },
        "feet": {
            "estimated_diameter_min": 60.3309310875,
            "estimated_diameter_max": 134.9040630575
        }
    },
    "is_potentially_hazardous_asteroid": false,
    "close_approach_data": [
        {
            "close_approach_date": "1975-07-23",
            "close_approach_date_full": "1975-Jul-23 18:33",
            "epoch_date_close_approach": 175372380000,
            "relative_velocity": {
                "kilometers_per_second": "15.5055966366",
                "kilometers_per_hour": "55820.1478919144",
                "miles_per_hour": "34684.4691165065"
            },
            "miss_distance": {
                "astronomical": "0.3233966191",
                "lunar": "125.8012848299",
                "kilometers": "48379445.382561317",
                "miles": "30061593.3861154946"
            },
            "orbiting_body": "Earth"
        },
        {
            "close_approach_date": "1978-04-10",
            "close_approach_date_full": "1978-Apr-10 23:43",
            "epoch_date_close_approach": 261099780000,
            "relative_velocity": {
                "kilometers_per_second": "20.6544051483",
                "kilometers_per_hour": "74355.8585340128",
                "miles_per_hour": "46201.8388763148"
            },
            "miss_distance": {
                "astronomical": "0.4924322325",
                "lunar": "191.5561384425",
                "kilometers": "73666813.101344775",
                "miles": "45774435.072416895"
            },
            "orbiting_body": "Earth"
        },
        {
            "close_approach_date": "2015-05-26",
            "close_approach_date_full": "2015-May-26 22:37",
            "epoch_date_close_approach": 1432679820000,
            "relative_velocity": {
                "kilometers_per_second": "6.4338240324",
                "kilometers_per_hour": "23161.7665166234",
                "miles_per_hour": "14391.8209780652"
            },
            "miss_distance": {
                "astronomical": "0.0395064819",
                "lunar": "15.3680214591",
                "kilometers": "5910085.543433553",
                "miles": "3672356.8672389114"
            },
            "orbiting_body": "Earth"
        }
    ],
    "orbital_data": {
        "orbit_id": "13",
        "orbit_determination_date": "2017-04-06 08:33:50",
        "first_observation_date": "2015-05-11",
        "last_observation_date": "2015-05-31",
        "data_arc_in_days": 20,
        "observations_used": 64,
        "orbit_uncertainty": "7",
        "minimum_orbit_intersection": ".0310088",
        "jupiter_tisserand_invariant": "3.679",
        "epoch_osculation": "2459000.5",
        "eccentricity": ".4800279501073696",
        "semi_major_axis": "2.009853890639036",
        "inclination": ".8991582073938968",
        "ascending_node_longitude": "52.78780676334291",
        "orbital_period": "1040.746974827518",
        "perihelion_distance": "1.045067847500258",
        "perihelion_argument": "201.8919785318597",
        "aphelion_distance": "2.974639933777814",
        "perihelion_time": "2459258.654325628867",
        "mean_anomaly": "270.7030243909244",
        "mean_motion": ".3459054013197229",
        "equinox": "J2000",
        "orbit_class": {
            "orbit_class_type": "AMO",
            "orbit_class_description": "Near-Earth asteroid orbits similar to that of 1221 Amor",
            "orbit_class_range": "1.017 AU < q (perihelion) < 1.3 AU"
        }
    },
    "is_sentry_object": false
}